{"type": "FeatureCollection", "features": [ {"type": "Feature", "properties": {"norad_id": 34014, "name": "COSMOS 2251 DEB", "group": "cosmos-2251-debris", "lat": 36.69436709357374, "lon": 67.74582198798417, "alt_km": 654.3392592637065, "timestamp": "2025-12-23T07:45:09.798574+00:00", "meta": {"OBJECT_NAME": "COSMOS 2251 DEB", "OBJECT_ID": "1993-036GZ", "EPOCH": "2025-12-22T03:43:38.357184", "MEAN_MOTION": 14.73241983, "ECCENTRICITY": 0.00374339, "INCLINATION": 74.0173, "RA_OF_ASC_NODE": 262.3559, "ARG_OF_PERICENTER": 39.3733, "MEAN_ANOMALY": 31.0077, "EPHEMERIS_TYPE": 0, "CLASSIFICATION_TYPE": "U", "NORAD_CAT_ID": 34014, "ELEMENT_SET_NO": 999, "REV_AT_EPOCH": 89442, "BSTAR": 0.0008905225, "MEAN_MOTION_DOT": 5.788e-05, "MEAN_MOTION_DDOT": 0}, "tle": {"line1": "1 34014U 93036GZ  25356.15530506  .00005788  00000+0  89052-3 0  9993", "line2": "2 34014  74.0173 262.3559 0037433  39.3733  31.0077 14.73241983894423"}}, "geometry": {"type": "Point", "coordinates": [67.74582198798417, 36.69436709357374]}}, {"type": "Feature", "properties": {"norad_id": 34015, "name": "COSMOS 2251 DEB", "group": "cosmos-2251-debris", "lat": 50.330935575957355, "lon": -61.00307012093681, "alt_km": 691.8451828098123, "timestamp": "2025-12-23T07:45:09.798584+00:00", "meta": {"OBJECT_NAME": "COSMOS 2251 DEB", "OBJECT_ID": "1993-036HA", "EPOCH": "2025-12-22T20:12:20.020896", "MEAN_MOTION": 14.60369395, "ECCENTRICITY": 0.00209819, "INCLINATION": 74.0244, "RA_OF_ASC_NODE": 140.1244, "ARG_OF_PERICENTER": 236.9409, "MEAN_ANOMALY": 241.5911, "EPHEMERIS_TYPE": 0, "CLASSIFICATION_TYPE": "U", "NORAD_CAT_ID": 34015, "ELEMENT_SET_NO": 999, "REV_AT_EPOCH": 88678, "BSTAR": 0.0012041911, "MEAN_MOTION_DOT": 5.818e-05, "MEAN_MOTION_DDOT": 0}, "tle": {"line1": "1 34015U 93036HA  25356.84189839  .00005818  00000+0  12042-2 0  9997", "line2": "2 34015  74.0244 140.1244 0020981 236.9409 241.5911 14.60369395886781"}}, "geometry": {"type": "Point", "coordinates": [-61.00307012093681, 50.330935575957355]}}, {"type": "Feature", "properties": {"norad_id": 34018, "name": "COSMOS 2251 DEB", "group": "cosmos-2251-debris", "lat": 43.142835305505464, "lon": -121.5655541975237, "alt_km": 782.2098619636763, "timestamp": "2025-12-23T07:45:09.798594+00:00", "meta": {"OBJECT_NAME": "COSMOS 2251 DEB", "OBJECT_ID": "1993-036HD", "EPOCH": "2025-12-22T16:03:08.756640", "MEAN_MOTION": 13.81082556, "ECCENTRICITY": 0.02632203, "INCLINATION": 73.878, "RA_OF_ASC_NODE": 75.2701, "ARG_OF_PERICENTER": 109.2521, "MEAN_ANOMALY": 12.6838, "EPHEMERIS_TYPE": 0, "CLASSIFICATION_TYPE": "U", "NORAD_CAT_ID": 34018, "ELEMENT_SET_NO": 999, "REV_AT_EPOCH": 84794, "BSTAR": 0.00032313979, "MEAN_MOTION_DOT": 4.23e-06, "MEAN_MOTION_DDOT": 0}, "tle": {"line1": "1 34018U 93036HD  25356.66885135  .00000423  00000+0  32314-3 0  9994", "line2": "2 34018  73.8780  75.2701 0263220 109.2521  12.6838 13.81082556847947"}}, "geometry": {"type": "Point", "coordinates": [-121.5655541975237, 43.142835305505464]}}, {"type": "Feature", "properties": {"norad_id": 34019, "name": "COSMOS 2251 DEB", "group": "cosmos-2251-debris", "lat": 64.10165597620654, "lon": 174.9220382577483, "alt_km": 779.54519174084, "timestamp": "2025-12-23T07:45:09.798604+00:00", "meta": {"OBJECT_NAME": "COSMOS 2251 DEB", "OBJECT_ID": "1993-036HE", "EPOCH": "2025-12-22T20:20:18.510144", "MEAN_MOTION": 14.33979606, "ECCENTRICITY": 0.00623066, "INCLINATION": 73.9532, "RA_OF_ASC_NODE": 32.1506, "ARG_OF_PERICENTER": 211.8358, "MEAN_ANOMALY": 325.2344, "EPHEMERIS_TYPE": 0, "CLASSIFICATION_TYPE": "U", "NORAD_CAT_ID": 34019, "ELEMENT_SET_NO": 999, "REV_AT_EPOCH": 87665, "BSTAR": 0.00063853649, "MEAN_MOTION_DOT": 1.795e-05, "MEAN_MOTION_DDOT": 0}, "tle": {"line1": "1 34019U 93036HE  25356.84743646  .00001795  00000+0  63854-3 0  9991", "line2": "2 34019  73.9532  32.1506 0062306 211.8358 325.2344 14.33979606876653"}}, "geometry": {"type": "Point", "coordinates": [174.9220382577483, 64.10165597620654]}}, {"type": "Feature", "properties": {"norad_id": 34021, "name": "COSMOS 2251 DEB", "group": "cosmos-2251-debris", "lat": 71.5148159261306, "lon": -128.940381417073, "alt_km": 731.774911427955, "timestamp": "2025-12-23T07:45:09.798614+00:00", "meta": {"OBJECT_NAME": "COSMOS 2251 DEB", "OBJECT_ID": "1993-036HG", "EPOCH": "2025-12-21T09:11:27.909888", "MEAN_MOTION": 14.4997632, "ECCENTRICITY": 0.00209884, "INCLINATION": 74.036, "RA_OF_ASC_NODE": 113.5998, "ARG_OF_PERICENTER": 256.8538, "MEAN_ANOMALY": 159.7796, "EPHEMERIS_TYPE": 0, "CLASSIFICATION_TYPE": "U", "NORAD_CAT_ID": 34021, "ELEMENT_SET_NO": 999, "REV_AT_EPOCH": 88755, "BSTAR": 0.00036322987, "MEAN_MOTION_DOT": 1.382e-05, "MEAN_MOTION_DDOT": 0}, "tle": {"line1": "1 34021U 93036HG  25355.38296192  .00001382  00000+0  36323-3 0  9994", "line2": "2 34021  74.0360 113.5998 0020988 256.8538 159.7796 14.49976320887554"}}, "geometry": {"type": "Point", "coordinates": [-128.940381417073, 71.5148159261306]}}, {"type": "Feature", "properties": {"norad_id": 34022, "name": "COSMOS 2251 DEB", "group": "cosmos-2251-debris", "lat": -35.432371002665235, "lon": 83.03273106508755, "alt_km": 769.9095645528914, "timestamp": "2025-12-23T07:45:09.798623+00:00", "meta": {"OBJECT_NAME": "COSMOS 2251 DEB", "OBJECT_ID": "1993-036HH", "EPOCH": "2025-12-22T17:29:14.286912", "MEAN_MOTION": 14.38976963, "ECCENTRICITY": 0.00230176, "INCLINATION": 74.0539, "RA_OF_ASC_NODE": 252.3899, "ARG_OF_PERICENTER": 315.7419, "MEAN_ANOMALY": 63.6061, "EPHEMERIS_TYPE": 0, "CLASSIFICATION_TYPE": "U", "NORAD_CAT_ID": 34022, "ELEMENT_SET_NO": 999, "REV_AT_EPOCH": 88339, "BSTAR": 0.00018174649, "MEAN_MOTION_DOT": 5.36e-06, "MEAN_MOTION_DDOT": 0}, "tle": {"line1": "1 34022U 93036HH  25356.72863758  .00000536  00000+0  18175-3 0  9997", "line2": "2 34022  74.0539 252.3899 0023017 315.7419  63.6061 14.38976963883391"}}, "geometry": {"type": "Point", "coordinates": [83.03273106508755, -35.432371002665235]}}, {"type": "Feature", "properties": {"norad_id": 34023, "name": "COSMOS 2251 DEB", "group": "cosmos-2251-debris", "lat": -16.882769322481142, "lon": 57.145680618641634, "alt_km": 769.5077716654814, "timestamp": "2025-12-23T07:45:09.798634+00:00", "meta": {"OBJECT_NAME": "COSMOS 2251 DEB", "OBJECT_ID": "1993-036HJ", "EPOCH": "2025-12-22T17:47:47.090400", "MEAN_MOTION": 14.40579757, "ECCENTRICITY": 0.00188339, "INCLINATION": 74.0241, "RA_OF_ASC_NODE": 233.2337, "ARG_OF_PERICENTER": 327.4458, "MEAN_ANOMALY": 95.6326, "EPHEMERIS_TYPE": 0, "CLASSIFICATION_TYPE": "U", "NORAD_CAT_ID": 34023, "ELEMENT_SET_NO": 999, "REV_AT_EPOCH": 88358, "BSTAR": 0.00023696647, "MEAN_MOTION_DOT": 7.3e-06, "MEAN_MOTION_DDOT": 0}, "tle": {"line1": "1 34023U 93036HJ  25356.74151725  .00000730  00000+0  23697-3 0  9995", "line2": "2 34023  74.0241 233.2337 0018833 327.4458  95.6326 14.40579757883583"}}, "geometry": {"type": "Point", "coordinates": [57.145680618641634, -16.882769322481142]}}, {"type": "Feature", "properties": {"norad_id": 34024, "name": "COSMOS 2251 DEB", "group": "cosmos-2251-debris", "lat": 9.86936699538735, "lon": -60.551754594415456, "alt_km": 761.0580385561761, "timestamp": "2025-12-23T07:45:09.798644+00:00", "meta": {"OBJECT_NAME": "COSMOS 2251 DEB", "OBJECT_ID": "1993-036HK", "EPOCH": "2025-12-22T20:18:46.742112", "MEAN_MOTION": 14.35406694, "ECCENTRICITY": 0.00214844, "INCLINATION": 74.0469, "RA_OF_ASC_NODE": 297.469, "ARG_OF_PERICENTER": 346.0236, "MEAN_ANOMALY": 82.141, "EPHEMERIS_TYPE": 0, "CLASSIFICATION_TYPE": "U", "NORAD_CAT_ID": 34024, "ELEMENT_SET_NO": 999, "REV_AT_EPOCH": 88169, "BSTAR": 0.00016063394, "MEAN_MOTION_DOT": 4.36e-06, "MEAN_MOTION_DDOT": 0}, "tle": {"line1": "1 34024U 93036HK  25356.84637433  .00000436  00000+0  16063-3 0  9994", "line2": "2 34024  74.0469 297.4690 0021484 346.0236  82.1410 14.35406694881695"}}, "geometry": {"type": "Point", "coordinates": [-60.551754594415456, 9.86936699538735]}}, {"type": "Feature", "properties": {"norad_id": 34026, "name": "COSMOS 2251 DEB", "group": "cosmos-2251-debris", "lat": 67.76779188853115, "lon": 94.22848098567943, "alt_km": 967.8127402676355, "timestamp": "2025-12-23T07:45:09.798653+00:00", "meta": {"OBJECT_NAME": "COSMOS 2251 DEB", "OBJECT_ID": "1993-036HM", "EPOCH": "2025-12-22T22:43:25.146912", "MEAN_MOTION": 13.65321055, "ECCENTRICITY": 0.03497316, "INCLINATION": 73.7669, "RA_OF_ASC_NODE": 320.3118, "ARG_OF_PERICENTER": 188.7651, "MEAN_ANOMALY": 232.1059, "EPHEMERIS_TYPE": 0, "CLASSIFICATION_TYPE": "U", "NORAD_CAT_ID": 34026, "ELEMENT_SET_NO": 999, "REV_AT_EPOCH": 83671, "BSTAR": 0.00042859043, "MEAN_MOTION_DOT": 5.06e-06, "MEAN_MOTION_DDOT": 0}, "tle": {"line1": "1 34026U 93036HM  25356.94681883  .00000506  00000+0  42859-3 0  9995", "line2": "2 34026  73.7669 320.3118 0349731 188.7651 232.1059 13.65321055836714"}}, "geometry": {"type": "Point", "coordinates": [94.22848098567943, 67.76779188853115]}}, {"type": "Feature", "properties": {"norad_id": 34028, "name": "COSMOS 2251 DEB", "group": "cosmos-2251-debris", "lat": -46.87376799090176, "lon": 169.00403126633046, "alt_km": 1391.927477126852, "timestamp": "2025-12-23T07:45:09.798664+00:00", "meta": {"OBJECT_NAME": "COSMOS 2251 DEB", "OBJECT_ID": "1993-036HP", "EPOCH": "2025-12-22T16:59:04.968096", "MEAN_MOTION": 13.2063106, "ECCENTRICITY": 0.05434982, "INCLINATION": 73.8837, "RA_OF_ASC_NODE": 331.9681, "ARG_OF_PERICENTER": 108.1019, "MEAN_ANOMALY": 71.4676, "EPHEMERIS_TYPE": 0, "CLASSIFICATION_TYPE": "U", "NORAD_CAT_ID": 34028, "ELEMENT_SET_NO": 999, "REV_AT_EPOCH": 81139, "BSTAR": 0.00043372489, "MEAN_MOTION_DOT": 3.66e-06, "MEAN_MOTION_DDOT": 0}, "tle": {"line1": "1 34028U 93036HP  25356.70769639  .00000366  00000+0  43372-3 0  9992", "line2": "2 34028  73.8837 331.9681 0543498 108.1019  71.4676 13.20631060811394"}}, "geometry": {"type": "Point", "coordinates": [169.00403126633046, -46.87376799090176]}}]}